NOAA 1 [-]              
1 04793U 70106A   16138.47313321 -.00000043  00000-0  18682-4 0  9997
2 04793 101.8567 198.5352 0031436 298.9595 178.0467 12.53976561 79565
NOAA 2 [-]              
1 06235U 72082A   16138.49993775 -.00000018  00000-0  16630-3 0  9996
2 06235 101.6220 105.1521 0004325  38.3220  70.5143 12.53081313993881
NOAA 3 [-]              
1 06920U 73086A   16138.56156078 -.00000062  00000-0 -13805-3 0  9998
2 06920 101.8823 110.5396 0007016  95.1537  16.2687 12.40356524925492
NOAA 4 [-]              
1 07529U 74089A   16138.50591166 -.00000078  00000-0 -21307-3 0  9996
2 07529 101.5833 110.1970 0009503  67.7786  41.6678 12.53109878898475
NOAA 5 [-]              
1 09057U 76077A   16138.53431459 -.00000034  00000-0  71654-4 0  9996
2 09057 101.7853 128.0930 0009349 309.9326 164.2933 12.37770431799051
TIROS N [P]             
1 11060U 78096A   16137.95842389  .00000060  00000-0  51511-4 0  9997
2 11060  98.9479 179.8991 0011160  37.4958 322.6993 14.18111178156587
NOAA 6 [P]              
1 11416U 79057A   16138.53006140  .00000121  00000-0  59650-4 0  9992
2 11416  98.5419 124.8068 0010057 345.4706  14.6188 14.33342265923399
NOAA 7 [-]              
1 12553U 81059A   16138.53080595  .00000020  00000-0  32486-4 0  9992
2 12553  99.0010 108.2672 0010629 304.4474 163.4387 14.17188657803299
NOAA 8 [-]              
1 13923U 83022A   16138.48781288  .00000087  00000-0  51812-4 0  9994
2 13923  98.4835 132.8793 0014183 244.5060 115.4655 14.28525114725394
NOAA 9 [P]              
1 15427U 84123A   16138.49359376  .00000026  00000-0  35418-4 0  9995
2 15427  98.7589  82.1546 0015197  14.3065  95.9470 14.15954695622378
NOAA 10 [-]             
1 16969U 86073A   16138.50935914  .00000047  00000-0  36177-4 0  9999
2 16969  98.4696 153.2260 0012184   5.1117 121.4978 14.27966902543960
NOAA 11 [-]             
1 19531U 88089A   16138.19465754 -.00000002  00000-0  20518-4 0  9995
2 19531  98.6037 205.6612 0012385  94.3435 265.9154 14.15186941426748
NOAA 12 [-]             
1 21263U 91032A   16138.51290023  .00000004  00000-0  19903-4 0  9990
2 21263  98.5975 164.7529 0013662   1.8898 358.2332 14.25810587300342
NOAA 13 [-]             
1 22739U 93050A   16138.18241701  .00000018  00000-0  32569-4 0  9991
2 22739  98.6152 197.0841 0008857 219.8510 140.2013 14.12654700173529
NOAA 14 [-]             
1 23455U 94089A   16138.43602823 -.00000011  00000-0  17072-4 0  9990
2 23455  98.7226 217.5111 0009109 198.4012 161.6833 14.14076379102909
NOAA 15 [B]             
1 25338U 98030A   16138.48420454  .00000098  00000-0  60238-4 0  9991
2 25338  98.7829 142.5722 0009426 275.8393  84.1711 14.25725181936610
NOAA 16 [-]             
1 26536U 00055A   16138.42590898  .00000007  00000-0  27596-4 0  9996
2 26536  98.8991 208.3320 0010562   9.7532 350.3843 14.13144768807017
NOAA 17 [-]             
1 27453U 02032A   16138.51933205  .00000053  00000-0  40515-4 0  9992
2 27453  98.3807 113.6217 0010480 280.9216  79.0785 14.24944269722417
NOAA 18 [B]             
1 28654U 05018A   16138.52792518  .00000064  00000-0  59954-4 0  9993
2 28654  99.1974 144.6620 0015425 100.3910 259.9000 14.12284549566406
NOAA 19 [+]             
1 33591U 09005A   16138.47740318  .00000107  00000-0  83143-4 0  9999
2 33591  99.0375  95.0029 0013183 308.8547  51.1447 14.12072776374803
NPP [+]                 
1 37849U 11061A   16139.10236424  .00000041  00000-0  39997-4 0  9998
2 37849  98.7198  77.7254 0000989 123.1719 358.6101 14.19549449236035
